[{"OBJECT_NAME":"ISS OBJECT XZ","OBJECT_ID":"1998-067XZ","EPOCH":"2026-03-03T02:14:29.457600","MEAN_MOTION":15.51220688,"ECCENTRICITY":0.00095,"INCLINATION":51.6311,"RA_OF_ASC_NODE":104.6116,"ARG_OF_PERICENTER":163.9375,"MEAN_ANOMALY":196.1917,"EPHEMERIS_TYPE":0,"CLASSIFICATION_TYPE":"U","NORAD_CAT_ID":67683,"ELEMENT_SET_NO":999,"REV_AT_EPOCH":376,"BSTAR":0.00065554,"MEAN_MOTION_DOT":0.00038862,"MEAN_MOTION_DDOT":0},{"OBJECT_NAME":"GXIBA-1","OBJECT_ID":"1998-067YA","EPOCH":"2026-03-02T11:54:46.036224","MEAN_MOTION":15.53047483,"ECCENTRICITY":0.00110442,"INCLINATION":51.63,"RA_OF_ASC_NODE":107.375,"ARG_OF_PERICENTER":152.32,"MEAN_ANOMALY":207.838,"EPHEMERIS_TYPE":0,"CLASSIFICATION_TYPE":"U","NORAD_CAT_ID":67684,"ELEMENT_SET_NO":999,"REV_AT_EPOCH":367,"BSTAR":0.0011883441,"MEAN_MOTION_DOT":0.00076064,"MEAN_MOTION_DDOT":0},{"OBJECT_NAME":"CORAL","OBJECT_ID":"1998-067YB","EPOCH":"2026-03-02T09:09:48.620736","MEAN_MOTION":15.51449802,"ECCENTRICITY":0.00115824,"INCLINATION":51.6315,"RA_OF_ASC_NODE":108.1094,"ARG_OF_PERICENTER":157.7573,"MEAN_ANOMALY":202.3921,"EPHEMERIS_TYPE":0,"CLASSIFICATION_TYPE":"U","NORAD_CAT_ID":67685,"ELEMENT_SET_NO":999,"REV_AT_EPOCH":365,"BSTAR":0.00077682183,"MEAN_MOTION_DOT":0.00046607,"MEAN_MOTION_DDOT":0},{"OBJECT_NAME":"ISS OBJECT YC","OBJECT_ID":"1998-067YC","EPOCH":"2026-03-02T09:04:58.356480","MEAN_MOTION":15.51837466,"ECCENTRICITY":0.00077178,"INCLINATION":51.6316,"RA_OF_ASC_NODE":108.0894,"ARG_OF_PERICENTER":125.5885,"MEAN_ANOMALY":234.5825,"EPHEMERIS_TYPE":0,"CLASSIFICATION_TYPE":"U","NORAD_CAT_ID":67686,"ELEMENT_SET_NO":999,"REV_AT_EPOCH":365,"BSTAR":0.00085444662,"MEAN_MOTION_DOT":0.00051991,"MEAN_MOTION_DDOT":0},{"OBJECT_NAME":"LEOPARD","OBJECT_ID":"1998-067YD","EPOCH":"2026-03-02T15:22:46.244928","MEAN_MOTION":15.51318584,"ECCENTRICITY":0.0007695,"INCLINATION":51.6316,"RA_OF_ASC_NODE":106.8408,"ARG_OF_PERICENTER":130.3148,"MEAN_ANOMALY":229.8515,"EPHEMERIS_TYPE":0,"CLASSIFICATION_TYPE":"U","NORAD_CAT_ID":67687,"ELEMENT_SET_NO":999,"REV_AT_EPOCH":361,"BSTAR":0.00069517,"MEAN_MOTION_DOT":0.00041373,"MEAN_MOTION_DDOT":0},{"OBJECT_NAME":"ISS OBJECT YE","OBJECT_ID":"1998-067YE","EPOCH":"2026-03-02T12:12:35.467776","MEAN_MOTION":15.51667522,"ECCENTRICITY":0.00076399,"INCLINATION":51.6317,"RA_OF_ASC_NODE":107.4591,"ARG_OF_PERICENTER":126.6437,"MEAN_ANOMALY":233.5256,"EPHEMERIS_TYPE":0,"CLASSIFICATION_TYPE":"U","NORAD_CAT_ID":67688,"ELEMENT_SET_NO":999,"REV_AT_EPOCH":359,"BSTAR":0.00083945719,"MEAN_MOTION_DOT":0.0005075,"MEAN_MOTION_DDOT":0},{"OBJECT_NAME":"PRC TEST SPACECRAFT 4","OBJECT_ID":"2026-024A","EPOCH":"2026-03-03T04:42:37.144800","MEAN_MOTION":14.9168199,"ECCENTRICITY":0.0006118,"INCLINATION":49.9858,"RA_OF_ASC_NODE":53.253,"ARG_OF_PERICENTER":335.1208,"MEAN_ANOMALY":24.9438,"EPHEMERIS_TYPE":0,"CLASSIFICATION_TYPE":"U","NORAD_CAT_ID":67689,"ELEMENT_SET_NO":999,"REV_AT_EPOCH":361,"BSTAR":3.8581e-5,"MEAN_MOTION_DOT":1.48e-6,"MEAN_MOTION_DDOT":0},{"OBJECT_NAME":"CZ-2F R/B","OBJECT_ID":"2026-024B","EPOCH":"2026-03-03T02:59:26.848320","MEAN_MOTION":15.34029038,"ECCENTRICITY":0.0175112,"INCLINATION":49.9874,"RA_OF_ASC_NODE":47.5182,"ARG_OF_PERICENTER":247.6669,"MEAN_ANOMALY":110.5647,"EPHEMERIS_TYPE":0,"CLASSIFICATION_TYPE":"U","NORAD_CAT_ID":67690,"ELEMENT_SET_NO":999,"REV_AT_EPOCH":368,"BSTAR":0.0003791,"MEAN_MOTION_DOT":0.00020613,"MEAN_MOTION_DDOT":0},{"OBJECT_NAME":"CZ-2F DEB","OBJECT_ID":"2026-024C","EPOCH":"2026-03-03T03:56:55.803264","MEAN_MOTION":15.92866426,"ECCENTRICITY":0.0164358,"INCLINATION":49.9036,"RA_OF_ASC_NODE":39.8819,"ARG_OF_PERICENTER":261.6013,"MEAN_ANOMALY":96.6309,"EPHEMERIS_TYPE":0,"CLASSIFICATION_TYPE":"U","NORAD_CAT_ID":67691,"ELEMENT_SET_NO":999,"REV_AT_EPOCH":377,"BSTAR":0.00076488,"MEAN_MOTION_DOT":0.01101095,"MEAN_MOTION_DDOT":1.0863e-5},{"OBJECT_NAME":"CZ-2F DEB","OBJECT_ID":"2026-024D","EPOCH":"2026-03-03T04:25:57.664416","MEAN_MOTION":15.22537717,"ECCENTRICITY":0.0241311,"INCLINATION":50.3177,"RA_OF_ASC_NODE":50.6045,"ARG_OF_PERICENTER":254.471,"MEAN_ANOMALY":102.949,"EPHEMERIS_TYPE":0,"CLASSIFICATION_TYPE":"U","NORAD_CAT_ID":67692,"ELEMENT_SET_NO":999,"REV_AT_EPOCH":363,"BSTAR":0.0042106,"MEAN_MOTION_DOT":0.00232314,"MEAN_MOTION_DDOT":0},{"OBJECT_NAME":"STARLINK-36748","OBJECT_ID":"2026-025A","EPOCH":"2026-03-02T20:55:00.535872","MEAN_MOTION":15.7524296,"ECCENTRICITY":0.0001449,"INCLINATION":97.2847,"RA_OF_ASC_NODE":173.067,"ARG_OF_PERICENTER":78.4582,"MEAN_ANOMALY":281.6846,"EPHEMERIS_TYPE":0,"CLASSIFICATION_TYPE":"U","NORAD_CAT_ID":67693,"ELEMENT_SET_NO":999,"REV_AT_EPOCH":486,"BSTAR":0.0013994,"MEAN_MOTION_DOT":0.00214417,"MEAN_MOTION_DDOT":0},{"OBJECT_NAME":"STARLINK-36753","OBJECT_ID":"2026-025B","EPOCH":"2026-03-02T20:43:49.664064","MEAN_MOTION":15.75239969,"ECCENTRICITY":9.37e-5,"INCLINATION":97.285,"RA_OF_ASC_NODE":173.0767,"ARG_OF_PERICENTER":93.0151,"MEAN_ANOMALY":267.1221,"EPHEMERIS_TYPE":0,"CLASSIFICATION_TYPE":"U","NORAD_CAT_ID":67694,"ELEMENT_SET_NO":999,"REV_AT_EPOCH":487,"BSTAR":0.0012892,"MEAN_MOTION_DOT":0.00197088,"MEAN_MOTION_DDOT":0},{"OBJECT_NAME":"STARLINK-36750","OBJECT_ID":"2026-025C","EPOCH":"2026-03-03T03:49:53.503392","MEAN_MOTION":15.80922967,"ECCENTRICITY":0.0001341,"INCLINATION":97.2842,"RA_OF_ASC_NODE":173.4408,"ARG_OF_PERICENTER":123.5724,"MEAN_ANOMALY":236.5672,"EPHEMERIS_TYPE":0,"CLASSIFICATION_TYPE":"U","NORAD_CAT_ID":67695,"ELEMENT_SET_NO":999,"REV_AT_EPOCH":491,"BSTAR":0.0013464,"MEAN_MOTION_DOT":0.00267116,"MEAN_MOTION_DDOT":0},{"OBJECT_NAME":"STARLINK-36401","OBJECT_ID":"2026-025D","EPOCH":"2026-03-03T04:00:01.999584","MEAN_MOTION":15.75136272,"ECCENTRICITY":0.0001213,"INCLINATION":97.2853,"RA_OF_ASC_NODE":173.4299,"ARG_OF_PERICENTER":75.7376,"MEAN_ANOMALY":279.0083,"EPHEMERIS_TYPE":0,"CLASSIFICATION_TYPE":"U","NORAD_CAT_ID":67696,"ELEMENT_SET_NO":999,"REV_AT_EPOCH":480,"BSTAR":0.00060291,"MEAN_MOTION_DOT":0.00090545,"MEAN_MOTION_DDOT":0},{"OBJECT_NAME":"STARLINK-36704","OBJECT_ID":"2026-025E","EPOCH":"2026-03-02T20:40:46.863264","MEAN_MOTION":15.75187143,"ECCENTRICITY":0.0001183,"INCLINATION":97.2849,"RA_OF_ASC_NODE":173.079,"ARG_OF_PERICENTER":78.4383,"MEAN_ANOMALY":281.7015,"EPHEMERIS_TYPE":0,"CLASSIFICATION_TYPE":"U","NORAD_CAT_ID":67697,"ELEMENT_SET_NO":999,"REV_AT_EPOCH":486,"BSTAR":0.002406,"MEAN_MOTION_DOT":0.00374925,"MEAN_MOTION_DDOT":0},{"OBJECT_NAME":"STARLINK-36697","OBJECT_ID":"2026-025F","EPOCH":"2026-03-02T20:04:49.692000","MEAN_MOTION":15.80826232,"ECCENTRICITY":0.00010846,"INCLINATION":97.2847,"RA_OF_ASC_NODE":173.114,"ARG_OF_PERICENTER":93.6456,"MEAN_ANOMALY":266.4937,"EPHEMERIS_TYPE":0,"CLASSIFICATION_TYPE":"U","NORAD_CAT_ID":67698,"ELEMENT_SET_NO":999,"REV_AT_EPOCH":486,"BSTAR":0.001888839,"MEAN_MOTION_DOT":0.00377975,"MEAN_MOTION_DDOT":0},{"OBJECT_NAME":"STARLINK-36716","OBJECT_ID":"2026-025G","EPOCH":"2026-03-02T20:02:20.006592","MEAN_MOTION":15.80913687,"ECCENTRICITY":0.00012063,"INCLINATION":97.2843,"RA_OF_ASC_NODE":173.1167,"ARG_OF_PERICENTER":116.8811,"MEAN_ANOMALY":243.2581,"EPHEMERIS_TYPE":0,"CLASSIFICATION_TYPE":"U","NORAD_CAT_ID":67699,"ELEMENT_SET_NO":999,"REV_AT_EPOCH":487,"BSTAR":0.0012978343,"MEAN_MOTION_DOT":0.00257064,"MEAN_MOTION_DDOT":0}]
